H1 CPF 01  gfz 2021 06 07 00  6581 tandemx   
H2 1003001  6202 36605    2021 06 07 00 59 42 2021 06 12 00 00 42   120 1 1  0 0 0
H9
10 0 59376  38862.000000  0   -1805268.107   2952919.087  -5963475.151
10 0 59376  38982.000000  0   -1952911.504   3714480.916  -5470558.705
10 0 59376  39102.000000  0   -2053870.862   4413738.776  -4882003.426
10 0 59376  39222.000000  0   -2107561.594   5037652.734  -4208011.644
10 0 59376  39342.000000  0   -2114433.279   5574463.249  -3460299.083
10 0 59376  39462.000000  0   -2075941.561   6013920.525  -2651899.066
10 0 59376  39582.000000  0   -1994498.631   6347490.686  -1796941.263
10 0 59376  39702.000000  0   -1873403.723   6568532.755   -910405.624
10 0 59376  39822.000000  0   -1716754.141   6672440.176     -7858.409
10 0 59376  39942.000000  0   -1529338.882   6656746.497    894825.779
10 0 59376  40062.000000  0   -1316517.240   6521187.685   1781754.314
10 0 59376  40182.000000  0   -1084084.741   6267715.669   2637306.844
10 0 59376  40302.000000  0    -838131.081   5900468.123   3446417.532
10 0 59376  40422.000000  0    -584893.947   5425696.285   4194845.754
10 0 59376  40542.000000  0    -330612.494   4851651.965   4869432.187
10 0 59376  40662.000000  0     -81381.858   4188431.216   5458332.044
10 0 59376  40782.000000  0     156985.455   3447787.976   5951218.173
10 0 59376  40902.000000  0     379088.049   2642917.767   6339459.448
10 0 59376  41022.000000  0     580052.493   1788215.483   6616265.614
10 0 59376  41142.000000  0     755636.088    899013.738   6776800.339
10 0 59376  41262.000000  0     902313.460     -8694.326   6818259.794
10 0 59376  41382.000000  0    1017345.835   -918541.461   6739918.852
10 0 59376  41502.000000  0    1098831.809  -1814081.275   6543144.017
10 0 59376  41622.000000  0    1145738.887  -2679085.216   6231371.449
10 0 59376  41742.000000  0    1157915.250  -3497838.246   5810050.914
10 0 59376  41862.000000  0    1136080.796  -4255426.789   5286554.179
10 0 59376  41982.000000  0    1081799.772  -4938013.000   4670051.537
10 0 59376  42102.000000  0     997434.273  -5533094.008   3971358.176
10 0 59376  42222.000000  0     886079.211  -6029741.183   3202748.492
10 0 59376  42342.000000  0     751480.252  -6418810.889   2377740.868
10 0 59376  42462.000000  0     597935.448  -6693122.159   1510858.324
10 0 59376  42582.000000  0     430183.921  -6847597.651    617369.156
10 0 59376  42702.000000  0     253283.960  -6879365.576   -286989.469
10 0 59376  42822.000000  0      72482.846  -6787814.480  -1186299.668
10 0 59376  42942.000000  0    -106916.334  -6574600.760  -2064752.140
10 0 59376  43062.000000  0    -279687.979  -6243611.831  -2906930.631
10 0 59376  43182.000000  0    -440814.487  -5800886.181  -3698087.378
10 0 59376  43302.000000  0    -585610.862  -5254491.217  -4424403.789
10 0 59376  43422.000000  0    -709839.946  -4614362.548  -5073229.388
10 0 59376  43542.000000  0    -809815.821  -3892111.507  -5633295.711
10 0 59376  43662.000000  0    -882493.075  -3100804.824  -6094903.118
10 0 59376  43782.000000  0    -925540.320  -2254721.553  -6450078.113
10 0 59376  43902.000000  0    -937396.946  -1369092.257  -6692699.381
10 0 59376  44022.000000  0    -917312.504   -459826.215  -6818592.668
10 0 59376  44142.000000  0    -865367.906    456770.375  -6825594.871
10 0 59376  44262.000000  0    -782477.731   1364279.857  -6713585.945
10 0 59376  44382.000000  0    -670374.603   2246459.355  -6484490.713
10 0 59376  44502.000000  0    -531575.669   3087524.136  -6142249.975
10 0 59376  44622.000000  0    -369330.779   3872426.221  -5692761.363
10 0 59376  44742.000000  0    -187553.216   4587122.768  -5143787.428
10 0 59376  44862.000000  0       9265.426   5218829.704  -4504833.356
10 0 59376  44982.000000  0     216155.022   5756257.645  -3786993.384
10 0 59376  45102.000000  0     427779.970   6189823.456  -3002766.891
10 0 59376  45222.000000  0     638563.176   6511832.883  -2165847.256
10 0 59376  45342.000000  0     842818.441   6716630.336  -1290885.535
10 0 59376  45462.000000  0    1034888.145   6800710.437   -393232.491
10 0 59376  45582.000000  0    1209282.948   6762787.853    511335.778
10 0 59376  45702.000000  0    1360819.614   6603821.900   1406902.713
10 0 59376  45822.000000  0    1484752.481   6326996.446   2277699.140
10 0 59376  45942.000000  0    1576896.157   5937656.264   3108388.991
10 0 59376  46062.000000  0    1633736.723   5443200.585   3884347.110
10 0 59376  46182.000000  0    1652527.763   4852934.908   4591922.881
10 0 59376  46302.000000  0    1631370.003   4177886.154   5218684.397
10 0 59376  46422.000000  0    1569269.761   3430584.398   5753635.453
10 0 59376  46542.000000  0    1466178.632   2624822.947   6187403.016
10 0 59376  46662.000000  0    1323012.228   1775397.501   6512397.234
10 0 59376  46782.000000  0    1141647.923    897829.219   6722938.519
10 0 59376  46902.000000  0     924901.648      8078.665   6815349.823
10 0 59376  47022.000000  0     676484.404   -877743.066   6788017.166
10 0 59376  47142.000000  0     400938.528  -1743666.151   6641417.519
10 0 59376  47262.000000  0     103554.525  -2574149.881   6378110.992
10 0 59376  47382.000000  0    -209730.045  -3354362.892   6002698.593
10 0 59376  47502.000000  0    -532446.716  -4070449.088   5521743.970
10 0 59376  47622.000000  0    -857725.871  -4709775.069   4943664.935
10 0 59376  47742.000000  0   -1178439.380  -5261159.663   4278595.148
10 0 59376  47862.000000  0   -1487353.812  -5715080.051   3538211.367
10 0 59376  47982.000000  0   -1777289.268  -6063845.886   2735529.426
10 0 59376  48102.000000  0   -2041281.302  -6301738.316   1884675.072
10 0 59376  48222.000000  0   -2272742.146  -6425111.383   1000631.667
10 0 59376  48342.000000  0   -2465615.402  -6432451.940     98969.536
10 0 59376  48462.000000  0   -2614521.264  -6324396.917   -804436.543
10 0 59376  48582.000000  0   -2714888.636  -6103707.035  -1693695.698
10 0 59376  48702.000000  0   -2763071.108  -5775197.784  -2553188.717
10 0 59376  48822.000000  0   -2756443.620  -5345629.672  -3367849.247
10 0 59376  48942.000000  0   -2693476.965  -4823560.144  -4123431.784
10 0 59376  49062.000000  0   -2573788.720  -4219162.577  -4806759.768
10 0 59376  49182.000000  0   -2398170.468  -3544018.574  -5405950.286
10 0 59376  49302.000000  0   -2168591.489  -2810888.506  -5910612.903
10 0 59376  49422.000000  0   -1888178.663  -2033464.911  -6312020.373
10 0 59376  49542.000000  0   -1561172.445  -1226113.797  -6603248.413
10 0 59376  49662.000000  0   -1192861.591   -403609.802  -6779283.249
10 0 59376  49782.000000  0    -789498.185    419130.167  -6837097.885
10 0 59376  49902.000000  0    -358192.788   1227310.699  -6775698.227
10 0 59376  50022.000000  0      93207.912   2006516.907  -6596137.950
10 0 59376  50142.000000  0     556258.882   2742964.899  -6301503.700
10 0 59376  50262.000000  0    1022071.365   3423742.462  -5896869.338
10 0 59376  50382.000000  0    1481479.370   4037034.223  -5389216.462
10 0 59376  50502.000000  0    1925215.925   4572328.018  -4787325.328
10 0 59376  50622.000000  0    2344097.409   5020600.977  -4101634.803
10 0 59376  50742.000000  0    2729211.464   5374479.769  -3344070.597
10 0 59376  50862.000000  0    3072105.038   5628371.448  -2527845.934
10 0 59376  50982.000000  0    3364969.174   5778562.225  -1667235.382
10 0 59376  51102.000000  0    3600815.113   5823280.215   -777325.476
10 0 59376  51222.000000  0    3773636.641   5762720.051    126253.582
10 0 59376  51342.000000  0    3878554.552   5599027.845   1027608.884
10 0 59376  51462.000000  0    3911939.843   5336246.114   1910872.040
10 0 59376  51582.000000  0    3871512.322   4980221.676   2760486.119
10 0 59376  51702.000000  0    3756411.678   4538477.862   3561489.787
10 0 59376  51822.000000  0    3567237.852   4020050.544   4299786.242
10 0 59376  51942.000000  0    3306064.023   3435299.558   4962394.913
10 0 59376  52062.000000  0    2976415.017   2795695.621   5537682.801
10 0 59376  52182.000000  0    2583217.560   2113587.849   6015564.331
10 0 59376  52302.000000  0    2132725.287   1401960.949   6387673.155
10 0 59376  52422.000000  0    1632415.882    674183.995   6647503.137
10 0 59376  52542.000000  0    1090863.893    -56241.607   6790515.156
10 0 59376  52662.000000  0     517592.482   -775931.324   6814212.445
10 0 59376  52782.000000  0     -77094.497  -1471863.289   6718182.240
10 0 59376  52902.000000  0    -682297.942  -2131613.746   6504102.024
10 0 59376  53022.000000  0   -1286722.989  -2743579.038   6175710.895
10 0 59376  53142.000000  0   -1878887.445  -3297179.780   5738747.116
10 0 59376  53262.000000  0   -2447338.418  -3783045.985   5200855.244
10 0 59376  53382.000000  0   -2980876.063  -4193180.831   4571460.165
10 0 59376  53502.000000  0   -3468778.450  -4521098.180   3861606.686
10 0 59376  53622.000000  0   -3901020.270  -4761930.388   3083767.908
10 0 59376  53742.000000  0   -4268481.043  -4912504.910   2251626.768
10 0 59376  53862.000000  0   -4563140.069  -4971388.083   1379833.484
10 0 59376  53982.000000  0   -4778252.291  -4938893.140    483742.272
10 0 59376  54102.000000  0   -4908500.231  -4817052.683   -420866.239
10 0 59376  54222.000000  0   -4950118.391  -4609556.278  -1318071.832
10 0 59376  54342.000000  0   -4900985.845  -4321654.010  -2192104.710
10 0 59376  54462.000000  0   -4760684.347  -3960028.123  -3027630.653
10 0 59376  54582.000000  0   -4530521.561  -3532637.761  -3810024.108
10 0 59376  54702.000000  0   -4213520.156  -3048541.877  -4525624.851
10 0 59376  54822.000000  0   -3814373.249  -2517704.053  -5161973.879
10 0 59376  54942.000000  0   -3339367.613  -1950784.436  -5708023.818
10 0 59376  55062.000000  0   -2796277.765  -1358923.990  -6154321.456
10 0 59376  55182.000000  0   -2194233.160   -753525.195  -6493160.828
10 0 59376  55302.000000  0   -1543560.494   -146033.934  -6718704.613
99
